ONEWEB-0504             
1 54122U 22138K   26138.18063090  .00000084  00000+0  17804-3 0  9991
2 54122  87.9157 310.9468 0001894  85.2682 274.8667 13.19725321172876
ONEWEB-0505             
1 54123U 22138L   26138.17747514  .00000011  00000+0 -57501-5 0  9992
2 54123  87.9158 310.9484 0001832  77.5723 282.5615 13.19724301172852
ONEWEB-0506             
1 54124U 22138M   26138.00057341 -.00000026  00000+0 -96828-4 0  9998
2 54124  87.9155 310.9803 0001806  83.2798 276.8540 13.19725333172828
ONEWEB-0507             
1 54125U 22138N   26138.17273705  .00000059  00000+0  11556-3 0  9999
2 54125  87.9147 310.9611 0001709  85.7117 274.4211 13.19725446172892
ONEWEB-0508             
1 54126U 22138P   26138.16957740 -.00000064  00000+0 -19288-3 0  9995
2 54126  87.9148 310.9613 0001565  79.1213 281.0096 13.19725739172878
ONEWEB-0509             
1 54127U 22138Q   26137.76522856  .00000069  00000+0  14079-3 0  9993
2 54127  87.9159 311.0282 0001768  88.3129 271.8206 13.19726281172792
ONEWEB-0510             
1 54128U 22138R   26138.13232858  .00004491  00000+0  11012-1 0  9991
2 54128  87.9163 280.4292 0002205 108.0771 252.0603 13.20743311175316
ONEWEB-0511             
1 54129U 22138S   26137.91369345 -.00000038  00000+0 -12748-3 0  9993
2 54129  87.9156 311.0023 0002071  88.0948 272.0422 13.19724005172849
ONEWEB-0512             
1 54130U 22138T   26137.90579438  .00000005  00000+0 -19586-4 0  9991
2 54130  87.9145 311.0110 0001922  81.8219 278.3132 13.19726479172813
ONEWEB-0513             
1 54131U 22138U   26137.99963032 -.00000077  00000+0 -22363-3 0  9994
2 54131  87.9153 310.9402 0002394  71.2662 288.8730 13.20266929172736
ONEWEB-0514             
1 54132U 22138V   26137.99741159 -.00000011  00000+0 -60445-4 0  9991
2 54132  87.9156 310.9834 0001868  95.5257 264.6089 13.19725492172847
ONEWEB-0515             
1 54133U 22138W   26138.11886351 -.00002909  00000+0 -71866-2 0  9996
2 54133  87.9168 280.4248 0001816 123.0811 237.0497 13.20785335175335
ONEWEB-0516             
1 54134U 22138X   26138.19959148 -.00000007  00000+0 -49312-4 0  9990
2 54134  87.9147 310.9527 0001650  89.8142 270.3180 13.19726204172877
ONEWEB-0517             
1 54135U 22138Y   26138.17905334  .00000037  00000+0  60985-4 0  9997
2 54135  87.9154 310.9474 0002100  92.3865 267.7508 13.19725953172873
ONEWEB-0518             
1 54136U 22138Z   26138.04637536 -.00000044  00000+0 -14144-3 0  9995
2 54136  87.9147 310.9849 0001664  88.2761 271.8563 13.19724703172852
ONEWEB-0519             
1 54137U 22138AA  26137.99582203 -.00000003  00000+0 -39069-4 0  9998
2 54137  87.9162 310.9829 0002008  91.1417 268.9946 13.19725748172854
