[{"OBJECT_NAME":"ONEWEB-0504","OBJECT_ID":"2022-138K","EPOCH":"2026-05-18T04:20:06.509760","MEAN_MOTION":13.19725321,"ECCENTRICITY":0.0001894,"INCLINATION":87.9157,"RA_OF_ASC_NODE":310.9468,"ARG_OF_PERICENTER":85.2682,"MEAN_ANOMALY":274.8667,"EPHEMERIS_TYPE":0,"CLASSIFICATION_TYPE":"U","NORAD_CAT_ID":54122,"ELEMENT_SET_NO":999,"REV_AT_EPOCH":17287,"BSTAR":0.00017804,"MEAN_MOTION_DOT":8.4e-07,"MEAN_MOTION_DDOT":0.0},{"OBJECT_NAME":"ONEWEB-0505","OBJECT_ID":"2022-138L","EPOCH":"2026-05-18T04:15:33.852096","MEAN_MOTION":13.19724301,"ECCENTRICITY":0.0001832,"INCLINATION":87.9158,"RA_OF_ASC_NODE":310.9484,"ARG_OF_PERICENTER":77.5723,"MEAN_ANOMALY":282.5615,"EPHEMERIS_TYPE":0,"CLASSIFICATION_TYPE":"U","NORAD_CAT_ID":54123,"ELEMENT_SET_NO":999,"REV_AT_EPOCH":17285,"BSTAR":-5.750100000000001e-06,"MEAN_MOTION_DOT":1.1e-07,"MEAN_MOTION_DDOT":0.0},{"OBJECT_NAME":"ONEWEB-0506","OBJECT_ID":"2022-138M","EPOCH":"2026-05-18T00:00:49.542624","MEAN_MOTION":13.19725333,"ECCENTRICITY":0.0001806,"INCLINATION":87.9155,"RA_OF_ASC_NODE":310.9803,"ARG_OF_PERICENTER":83.2798,"MEAN_ANOMALY":276.854,"EPHEMERIS_TYPE":0,"CLASSIFICATION_TYPE":"U","NORAD_CAT_ID":54124,"ELEMENT_SET_NO":999,"REV_AT_EPOCH":17282,"BSTAR":-9.6828e-05,"MEAN_MOTION_DOT":-2.6e-07,"MEAN_MOTION_DDOT":0.0},{"OBJECT_NAME":"ONEWEB-0507","OBJECT_ID":"2022-138N","EPOCH":"2026-05-18T04:08:44.481120","MEAN_MOTION":13.19725446,"ECCENTRICITY":0.0001709,"INCLINATION":87.9147,"RA_OF_ASC_NODE":310.9611,"ARG_OF_PERICENTER":85.7117,"MEAN_ANOMALY":274.4211,"EPHEMERIS_TYPE":0,"CLASSIFICATION_TYPE":"U","NORAD_CAT_ID":54125,"ELEMENT_SET_NO":999,"REV_AT_EPOCH":17289,"BSTAR":0.00011556,"MEAN_MOTION_DOT":5.9e-07,"MEAN_MOTION_DDOT":0.0},{"OBJECT_NAME":"ONEWEB-0508","OBJECT_ID":"2022-138P","EPOCH":"2026-05-18T04:04:11.487360","MEAN_MOTION":13.19725739,"ECCENTRICITY":0.0001565,"INCLINATION":87.9148,"RA_OF_ASC_NODE":310.9613,"ARG_OF_PERICENTER":79.1213,"MEAN_ANOMALY":281.0096,"EPHEMERIS_TYPE":0,"CLASSIFICATION_TYPE":"U","NORAD_CAT_ID":54126,"ELEMENT_SET_NO":999,"REV_AT_EPOCH":17287,"BSTAR":-0.00019288,"MEAN_MOTION_DOT":-6.4e-07,"MEAN_MOTION_DDOT":0.0},{"OBJECT_NAME":"ONEWEB-0509","OBJECT_ID":"2022-138Q","EPOCH":"2026-05-17T18:21:55.747584","MEAN_MOTION":13.19726281,"ECCENTRICITY":0.0001768,"INCLINATION":87.9159,"RA_OF_ASC_NODE":311.0282,"ARG_OF_PERICENTER":88.3129,"MEAN_ANOMALY":271.8206,"EPHEMERIS_TYPE":0,"CLASSIFICATION_TYPE":"U","NORAD_CAT_ID":54127,"ELEMENT_SET_NO":999,"REV_AT_EPOCH":17279,"BSTAR":0.00014079,"MEAN_MOTION_DOT":6.9e-07,"MEAN_MOTION_DDOT":0.0},{"OBJECT_NAME":"ONEWEB-0510","OBJECT_ID":"2022-138R","EPOCH":"2026-05-18T03:10:33.189312","MEAN_MOTION":13.20743311,"ECCENTRICITY":0.0002205,"INCLINATION":87.9163,"RA_OF_ASC_NODE":280.4292,"ARG_OF_PERICENTER":108.0771,"MEAN_ANOMALY":252.0603,"EPHEMERIS_TYPE":0,"CLASSIFICATION_TYPE":"U","NORAD_CAT_ID":54128,"ELEMENT_SET_NO":999,"REV_AT_EPOCH":17531,"BSTAR":0.011012000000000001,"MEAN_MOTION_DOT":4.491e-05,"MEAN_MOTION_DDOT":0.0},{"OBJECT_NAME":"ONEWEB-0511","OBJECT_ID":"2022-138S","EPOCH":"2026-05-17T21:55:43.114080","MEAN_MOTION":13.19724005,"ECCENTRICITY":0.0002071,"INCLINATION":87.9156,"RA_OF_ASC_NODE":311.0023,"ARG_OF_PERICENTER":88.0948,"MEAN_ANOMALY":272.0422,"EPHEMERIS_TYPE":0,"CLASSIFICATION_TYPE":"U","NORAD_CAT_ID":54129,"ELEMENT_SET_NO":999,"REV_AT_EPOCH":17284,"BSTAR":-0.00012748000000000002,"MEAN_MOTION_DOT":-3.8e-07,"MEAN_MOTION_DDOT":0.0},{"OBJECT_NAME":"ONEWEB-0512","OBJECT_ID":"2022-138T","EPOCH":"2026-05-17T21:44:20.634432","MEAN_MOTION":13.19726479,"ECCENTRICITY":0.0001922,"INCLINATION":87.9145,"RA_OF_ASC_NODE":311.011,"ARG_OF_PERICENTER":81.8219,"MEAN_ANOMALY":278.3132,"EPHEMERIS_TYPE":0,"CLASSIFICATION_TYPE":"U","NORAD_CAT_ID":54130,"ELEMENT_SET_NO":999,"REV_AT_EPOCH":17281,"BSTAR":-1.9586000000000002e-05,"MEAN_MOTION_DOT":5e-08,"MEAN_MOTION_DDOT":0.0},{"OBJECT_NAME":"ONEWEB-0513","OBJECT_ID":"2022-138U","EPOCH":"2026-05-17T23:59:28.059648","MEAN_MOTION":13.20266929,"ECCENTRICITY":0.0002394,"INCLINATION":87.9153,"RA_OF_ASC_NODE":310.9402,"ARG_OF_PERICENTER":71.2662,"MEAN_ANOMALY":288.873,"EPHEMERIS_TYPE":0,"CLASSIFICATION_TYPE":"U","NORAD_CAT_ID":54131,"ELEMENT_SET_NO":999,"REV_AT_EPOCH":17273,"BSTAR":-0.00022363,"MEAN_MOTION_DOT":-7.7e-07,"MEAN_MOTION_DDOT":0.0},{"OBJECT_NAME":"ONEWEB-0514","OBJECT_ID":"2022-138V","EPOCH":"2026-05-17T23:56:16.361376","MEAN_MOTION":13.19725492,"ECCENTRICITY":0.0001868,"INCLINATION":87.9156,"RA_OF_ASC_NODE":310.9834,"ARG_OF_PERICENTER":95.5257,"MEAN_ANOMALY":264.6089,"EPHEMERIS_TYPE":0,"CLASSIFICATION_TYPE":"U","NORAD_CAT_ID":54132,"ELEMENT_SET_NO":999,"REV_AT_EPOCH":17284,"BSTAR":-6.044500000000001e-05,"MEAN_MOTION_DOT":-1.1e-07,"MEAN_MOTION_DDOT":0.0},{"OBJECT_NAME":"ONEWEB-0515","OBJECT_ID":"2022-138W","EPOCH":"2026-05-18T02:51:09.807264","MEAN_MOTION":13.20785335,"ECCENTRICITY":0.0001816,"INCLINATION":87.9168,"RA_OF_ASC_NODE":280.4248,"ARG_OF_PERICENTER":123.0811,"MEAN_ANOMALY":237.0497,"EPHEMERIS_TYPE":0,"CLASSIFICATION_TYPE":"U","NORAD_CAT_ID":54133,"ELEMENT_SET_NO":999,"REV_AT_EPOCH":17533,"BSTAR":-0.0071866,"MEAN_MOTION_DOT":-2.909e-05,"MEAN_MOTION_DDOT":0.0},{"OBJECT_NAME":"ONEWEB-0516","OBJECT_ID":"2022-138X","EPOCH":"2026-05-18T04:47:24.703872","MEAN_MOTION":13.19726204,"ECCENTRICITY":0.000165,"INCLINATION":87.9147,"RA_OF_ASC_NODE":310.9527,"ARG_OF_PERICENTER":89.8142,"MEAN_ANOMALY":270.318,"EPHEMERIS_TYPE":0,"CLASSIFICATION_TYPE":"U","NORAD_CAT_ID":54134,"ELEMENT_SET_NO":999,"REV_AT_EPOCH":17287,"BSTAR":-4.9312000000000005e-05,"MEAN_MOTION_DOT":-7e-08,"MEAN_MOTION_DDOT":0.0},{"OBJECT_NAME":"ONEWEB-0517","OBJECT_ID":"2022-138Y","EPOCH":"2026-05-18T04:17:50.208576","MEAN_MOTION":13.19725953,"ECCENTRICITY":0.00021,"INCLINATION":87.9154,"RA_OF_ASC_NODE":310.9474,"ARG_OF_PERICENTER":92.3865,"MEAN_ANOMALY":267.7508,"EPHEMERIS_TYPE":0,"CLASSIFICATION_TYPE":"U","NORAD_CAT_ID":54135,"ELEMENT_SET_NO":999,"REV_AT_EPOCH":17287,"BSTAR":6.0985000000000006e-05,"MEAN_MOTION_DOT":3.7e-07,"MEAN_MOTION_DDOT":0.0},{"OBJECT_NAME":"ONEWEB-0518","OBJECT_ID":"2022-138Z","EPOCH":"2026-05-18T01:06:46.831104","MEAN_MOTION":13.19724703,"ECCENTRICITY":0.0001664,"INCLINATION":87.9147,"RA_OF_ASC_NODE":310.9849,"ARG_OF_PERICENTER":88.2761,"MEAN_ANOMALY":271.8563,"EPHEMERIS_TYPE":0,"CLASSIFICATION_TYPE":"U","NORAD_CAT_ID":54136,"ELEMENT_SET_NO":999,"REV_AT_EPOCH":17285,"BSTAR":-0.00014144,"MEAN_MOTION_DOT":-4.4e-07,"MEAN_MOTION_DDOT":0.0},{"OBJECT_NAME":"ONEWEB-0519","OBJECT_ID":"2022-138AA","EPOCH":"2026-05-17T23:53:59.023392","MEAN_MOTION":13.19725748,"ECCENTRICITY":0.0002008,"INCLINATION":87.9162,"RA_OF_ASC_NODE":310.9829,"ARG_OF_PERICENTER":91.1417,"MEAN_ANOMALY":268.9946,"EPHEMERIS_TYPE":0,"CLASSIFICATION_TYPE":"U","NORAD_CAT_ID":54137,"ELEMENT_SET_NO":999,"REV_AT_EPOCH":17285,"BSTAR":-3.9069e-05,"MEAN_MOTION_DOT":-3e-08,"MEAN_MOTION_DDOT":0.0}]